2022-023F               
1 51951U 22023F   26185.60234509  .00010998  00000+0  43914-3 0  9991
2 51951  63.4437 214.2775 0132143 341.7423  17.8968 15.17846408240353
MERIDIAN 10             
1 52145U 22030A   26184.91789802  .00000192  00000+0  00000+0 0  9999
2 52145  62.6795 138.9800 6788409 272.8487  17.6321  2.00611362 31367
OMNI-L1                 
1 52157U 22033A   26185.45431138  .00002394  00000+0  30226-3 0  9994
2 52157  97.8394 264.2965 0004414 214.2835 145.8095 14.82815620230019
ENMAP                   
1 52159U 22033C   26185.60011436  .00001011  00000+0  15802-3 0  9996
2 52159  97.9793 267.6032 0001445  77.0698 283.0672 14.74936132229220
ARCSAT-1                
1 52161U 22033E   26185.19163744  .00015447  00000+0  23988-3 0  9995
2 52161  97.2751 277.7221 0006206 127.4999 232.6820 15.54033101238347
GLOBAL-18               
1 52196U 22034B   26185.37968067  .00025284  00000+0  50180-3 0  9999
2 52196  52.9800 174.4342 0004031 353.0444   7.0505 15.46866757239629
GAOFEN-3 03             
1 52200U 22035A   26185.64355046 -.00000101  00000+0 -17411-4 0  9997
2 52200  98.4059 193.9706 0001636  95.7573 264.3804 14.42216673223362
DAQI-1                  
1 52257U 22039A   26185.64927027  .00000056  00000+0  22134-4 0  9992
2 52257  98.1489 124.1406 0003136 178.5630 181.5579 14.57686867224487
BRO-6                   
1 52422U 22047AE  26185.62037360  .00083940  00000+0  13908-2 0  9995
2 52422  97.3394 277.0246 0003503   6.7186 353.4113 15.51863905233853
JILIN-1 GAOFEN 3D27     
1 52444U 22048B   26185.28325190  .00216493  00000+0  11509-2 0  9999
2 52444  97.5721 300.8248 0003597 273.1654  86.9201 15.79874901232171
JILIN-1 GAOFEN 3D28     
1 52445U 22048C   26185.18179250  .00256701  00000+0  11303-2 0  9991
2 52445  97.5667 300.9438 0003251 259.2008 100.8895 15.83865155232214
VIGORIDE-3              
1 52760U 22057AE  26185.11934421  .00006975  00000+0  26216-3 0  9999
2 52760  97.6631 325.5457 0009552  69.3096 290.9165 15.27459260227744
ION SCV-006             
1 52761U 22057AF  26185.38765260  .00016711  00000+0  34560-3 0  9992
2 52761  97.6126 334.8406 0017710  55.4074 304.8842 15.45713355228777
SHERPA-AC1              
1 52763U 22057AH  26185.39151434  .00009250  00000+0  26176-3 0  9991
2 52763  97.6711 335.3390 0008160  40.2567 319.9279 15.36508667228347
OMNI-L2                 
1 52771U 22057AR  26185.14405679  .00001655  00000+0  21765-3 0  9996
2 52771  97.4707 246.3626 0005104 266.7408  93.3222 14.81416369222909
STEP CUBE LAB-II        
1 52897U 22065D   26185.64082514  .00000836  00000+0  17131-3 0  9990
2 52897  98.2254 329.4905 0008049 339.1955  20.8918 14.63330437214055
RANDEV                  
1 52898U 22065E   26185.56892249  .00000901  00000+0  18224-3 0  9993
2 52898  98.2238 329.7778 0007406 340.4757  19.6161 14.63718678213793
SNUGLITE-II             
1 52899U 22065F   26185.66011012  .00001420  00000+0  27772-3 0  9991
2 52899  98.2225 330.4617 0006820 338.4056  21.6858 14.64382486213554
MIMAN                   
1 52900U 22065G   26185.63915684  .00000850  00000+0  17950-3 0  9992
2 52900  98.2285 328.0356 0007022 341.1110  18.9830 14.61864577212992
STARLINK-4362           
1 53043U 22077A   26185.47833637  .00000072  00000+0  88891-5 0  9993
2 53043  97.2847   3.5238 0001566  90.4279 269.7128 15.05654197218485
LARES-2                 
1 53105U 22080A   26177.40365794 -.00000028  00000+0  00000+0 0  9996
2 53105  70.1592 302.1681 0005264 334.1364  25.8897  6.38965133 92253
GREENCUBE (IO-117)      
1 53109U 22080E   26185.30430443 -.00000003  00000+0  00000+0 0  9995
2 53109  70.1435 292.2925 0008954 285.9105  74.0568  6.42583223 93161
STARLINK-4410           
1 53204U 22084R   26185.58335648  .00341379  00000+0  82137-2 0  9993
2 53204  97.5995 247.2114 0001149  90.8057  94.5251 15.39926756  5841
COSMOS 2558             
1 53323U 22089A   26183.75848572  .00128848  00000+0  73246-3 0  9998
2 53323  97.2251 288.4942 0002750 244.7410 115.3572 15.78623056220288
TECMS                   
1 53346U 22090A   26185.65337505  .00005777  00000+0  25942-3 0  9990
2 53346  97.3126 253.2695 0004941 126.9459 233.2231 15.21533020217465
DONGPO 02               
1 53452U 22098J   26185.63376160  .00214990  00000+0  12079-2 0  9999
2 53452  97.5543 318.3875 0004048 236.6043 123.4836 15.78646043217549
DONGPO 01               
1 53453U 22098K   26185.65072846  .00198942  00000+0  12585-2 0  9996
2 53453  97.5609 318.8823 0002561 221.1014 139.0059 15.76002995217502
