OBJECT_NAME,OBJECT_ID,EPOCH,MEAN_MOTION,ECCENTRICITY,INCLINATION,RA_OF_ASC_NODE,ARG_OF_PERICENTER,MEAN_ANOMALY,EPHEMERIS_TYPE,CLASSIFICATION_TYPE,NORAD_CAT_ID,ELEMENT_SET_NO,REV_AT_EPOCH,BSTAR,MEAN_MOTION_DOT,MEAN_MOTION_DDOT
2022-023F,2022-023F,2026-07-04T14:27:22.615776,15.17846408,.01321434,63.4437,214.2775,341.7423,17.8968,0,U,51951,999,24035,.43914373E-3,.10998E-3,0
MERIDIAN 10,2022-030A,2026-07-03T22:01:46.388928,2.00611362,.67884093,62.6795,138.9800,272.8487,17.6321,0,U,52145,999,3136,0,.192E-5,0
OMNI-L1,2022-033A,2026-07-04T10:54:12.503232,14.82815620,.00044148,97.8394,264.2965,214.2835,145.8095,0,U,52157,999,23001,.30225993E-3,.2394E-4,0
ENMAP,2022-033C,2026-07-04T14:24:09.880704,14.74936132,.0001445,97.9793,267.6032,77.0698,283.0672,0,U,52159,999,22922,.15802482E-3,.1011E-4,0
ARCSAT-1,2022-033E,2026-07-04T04:35:57.474816,15.54033101,.00062066,97.2751,277.7221,127.4999,232.6820,0,U,52161,999,23834,.23987703E-3,.15447E-3,0
GLOBAL-18,2022-034B,2026-07-04T09:06:44.409888,15.46866757,.00040314,52.9800,174.4342,353.0444,7.0505,0,U,52196,999,23962,.50180487E-3,.25284E-3,0
GAOFEN-3 03,2022-035A,2026-07-04T15:26:42.759744,14.42216673,.00016364,98.4059,193.9706,95.7573,264.3804,0,U,52200,999,22336,-.17410959E-4,-.101E-5,0
DAQI-1,2022-039A,2026-07-04T15:34:56.951328,14.57686867,.00031361,98.1489,124.1406,178.5630,181.5579,0,U,52257,999,22448,.22133607E-4,.56E-6,0
BRO-6,2022-047AE,2026-07-04T14:53:20.279040,15.51863905,.00035032,97.3394,277.0246,6.7186,353.4113,0,U,52422,999,23385,.13908018E-2,.8394E-3,0
JILIN-1 GAOFEN 3D27,2022-048B,2026-07-04T06:47:52.964160,15.79874901,.00035977,97.5721,300.8248,273.1654,86.9201,0,U,52444,999,23217,.11509282E-2,.216493E-2,0
JILIN-1 GAOFEN 3D28,2022-048C,2026-07-04T04:21:46.872000,15.83865155,.00032511,97.5667,300.9438,259.2008,100.8895,0,U,52445,999,23221,.11302687E-2,.256701E-2,0
VIGORIDE-3,2022-057AE,2026-07-04T02:51:51.339744,15.27459260,.00095527,97.6631,325.5457,69.3096,290.9165,0,U,52760,999,22774,.26216288E-3,.6975E-4,0
ION SCV-006,2022-057AF,2026-07-04T09:18:13.184640,15.45713355,.00177103,97.6126,334.8406,55.4074,304.8842,0,U,52761,999,22877,.34560454E-3,.16711E-3,0
SHERPA-AC1,2022-057AH,2026-07-04T09:23:46.838976,15.36508667,.00081605,97.6711,335.3390,40.2567,319.9279,0,U,52763,999,22834,.26176357E-3,.925E-4,0
OMNI-L2,2022-057AR,2026-07-04T03:27:26.506656,14.81416369,.00051041,97.4707,246.3626,266.7408,93.3222,0,U,52771,999,22290,.21765019E-3,.1655E-4,0
STEP CUBE LAB-II,2022-065D,2026-07-04T15:22:47.292096,14.63330437,.00080494,98.2254,329.4905,339.1955,20.8918,0,U,52897,999,21405,.17130721E-3,.836E-5,0
RANDEV,2022-065E,2026-07-04T13:39:14.903136,14.63718678,.00074065,98.2238,329.7778,340.4757,19.6161,0,U,52898,999,21379,.18223681E-3,.901E-5,0
SNUGLITE-II,2022-065F,2026-07-04T15:50:33.514368,14.64382486,.00068201,98.2225,330.4617,338.4056,21.6858,0,U,52899,999,21355,.27771995E-3,.142E-4,0
MIMAN,2022-065G,2026-07-04T15:20:23.150976,14.61864577,.00070224,98.2285,328.0356,341.1110,18.9830,0,U,52900,999,21299,.17950014E-3,.85E-5,0
STARLINK-4362,2022-077A,2026-07-04T11:28:48.262368,15.05654197,.00015666,97.2847,3.5238,90.4279,269.7128,0,U,53043,999,21848,.888907E-5,.72E-6,0
LARES-2,2022-080A,2026-06-26T09:41:16.046016,6.38965133,.0005264,70.1592,302.1681,334.1364,25.8897,0,U,53105,999,9225,0,-.28E-6,0
GREENCUBE (IO-117),2022-080E,2026-07-04T07:18:11.902752,6.42583223,.00089549,70.1435,292.2925,285.9105,74.0568,0,U,53109,999,9316,0,-.3E-7,0
STARLINK-4410,2022-084R,2026-07-04T14:00:01.999872,15.39926756,.00011496,97.5995,247.2114,90.8057,94.5251,0,U,53204,999,584,.821372E-2,.341379E-2,0
COSMOS 2558,2022-089A,2026-07-02T18:12:13.166208,15.78623056,.000275,97.2251,288.4942,244.7410,115.3572,0,U,53323,999,22028,.73246E-3,.128848E-2,0
TECMS,2022-090A,2026-07-04T15:40:51.604320,15.21533020,.00049418,97.3126,253.2695,126.9459,233.2231,0,U,53346,999,21746,.25941854E-3,.5777E-4,0
DONGPO 02,2022-098J,2026-07-04T15:12:37.002240,15.78646043,.00040486,97.5543,318.3875,236.6043,123.4836,0,U,53452,999,21754,.12078854E-2,.21499E-2,0
DONGPO 01,2022-098K,2026-07-04T15:37:02.938944,15.76002995,.00025613,97.5609,318.8823,221.1014,139.0059,0,U,53453,999,21750,.12584832E-2,.198942E-2,0
